{
    "links": {
        "self": "http://www.neowsapp.com/rest/v1/neo/3602156?api_key=iIulBulltgU6a56xZRHN4H3l9WmuAYTsLGpBGhQ2"
    },
    "id": "3602156",
    "neo_reference_id": "3602156",
    "name": "(2012 FB71)",
    "designation": "2012 FB71",
    "nasa_jpl_url": "http://ssd.jpl.nasa.gov/sbdb.cgi?sstr=3602156",
    "absolute_magnitude_h": 24.4,
    "estimated_diameter": {
        "kilometers": {
            "estimated_diameter_min": 0.0350392641,
            "estimated_diameter_max": 0.0783501764
        },
        "meters": {
            "estimated_diameter_min": 35.0392641108,
            "estimated_diameter_max": 78.3501764334
        },
        "miles": {
            "estimated_diameter_min": 0.0217723826,
            "estimated_diameter_max": 0.0486845275
        },
        "feet": {
            "estimated_diameter_min": 114.9582192654,
            "estimated_diameter_max": 257.0543928497
        }
    },
    "is_potentially_hazardous_asteroid": false,
    "close_approach_data": [
        {
            "close_approach_date": "2012-03-15",
            "close_approach_date_full": "2012-Mar-15 11:25",
            "epoch_date_close_approach": 1331810700000,
            "relative_velocity": {
                "kilometers_per_second": "15.6114523167",
                "kilometers_per_hour": "56201.228339981",
                "miles_per_hour": "34921.2576871399"
            },
            "miss_distance": {
                "astronomical": "0.0523834514",
                "lunar": "20.3771625946",
                "kilometers": "7836452.752688518",
                "miles": "4869345.9459488284"
            },
            "orbiting_body": "Earth"
        }
    ],
    "orbital_data": {
        "orbit_id": "5",
        "orbit_determination_date": "2017-04-06 08:50:12",
        "first_observation_date": "2012-03-29",
        "last_observation_date": "2012-04-13",
        "data_arc_in_days": 15,
        "observations_used": 11,
        "orbit_uncertainty": "8",
        "minimum_orbit_intersection": ".0174971",
        "jupiter_tisserand_invariant": "2.959",
        "epoch_osculation": "2456018.5",
        "eccentricity": ".7086522783071834",
        "semi_major_axis": "2.669925153181037",
        "inclination": "2.764274703325807",
        "ascending_node_longitude": "76.45692856443982",
        "orbital_period": "1593.481615000052",
        "perihelion_distance": ".7778766104696397",
        "perihelion_argument": "39.19309776391825",
        "aphelion_distance": "4.561973695892435",
        "perihelion_time": "2455963.754500073343",
        "mean_anomaly": "12.3681251092413",
        "mean_motion": ".225920397581737",
        "equinox": "J2000",
        "orbit_class": {
            "orbit_class_type": "APO",
            "orbit_class_description": "Near-Earth asteroid orbits which cross the Earth’s orbit similar to that of 1862 Apollo",
            "orbit_class_range": "a (semi-major axis) > 1.0 AU; q (perihelion) < 1.017 AU"
        }
    },
    "is_sentry_object": false
}